COSMOS 2433 (720)       
1 32275U 07052A   24251.33920534 -.00000069  00000+0  00000+0 0  9990
2 32275  65.9022 337.6510 0004486 225.0591 134.9597  2.13104230131252
COSMOS 2432 (719)       
1 32276U 07052B   24251.51242505 -.00000068  00000+0  00000+0 0  9995
2 32276  65.9173 337.7608 0008698 313.9417 124.9393  2.13103280131282
COSMOS 2434 (721)       
1 32393U 07065A   24250.07410567  .00000040  00000+0  00000+0 0  9993
2 32393  64.3210 213.8336 0000638  39.0444 322.7105  2.13101385129944
COSMOS 2436 (723)       
1 32395U 07065C   24251.97124973  .00000059  00000+0  00000+0 0  9998
2 32395  64.3296 213.8348 0016397 355.0006 157.2465  2.13100156129931
COSMOS 2456 (730)       
1 36111U 09070A   24251.52119020  .00000021  00000+0  00000+0 0  9993
2 36111  64.6501  93.1316 0001959 340.8702 205.0404  2.13103911114627
COSMOS 2457 (733)       
1 36112U 09070B   24251.24975139  .00000021  00000+0  00000+0 0  9994
2 36112  64.6346  92.9977 0005769 141.0236 330.0227  2.13101356114624
COSMOS 2460 (732)       
1 36402U 10007C   24251.21474525 -.00000068  00000+0  00000+0 0  9990
2 36402  65.7570 336.3066 0001749 203.1152 234.0109  2.13106371112927
COSMOS 2476 (744)       
1 37867U 11064A   24251.15952125  .00000022  00000+0  00000+0 0  9999
2 37867  64.9215  94.8096 0021551 231.7833 308.8556  2.13101718 99958
COSMOS 2477 (745)       
1 37868U 11064B   24251.38151661  .00000022  00000+0  00000+0 0  9991
2 37868  64.9285  94.8753 0018714 232.0964 297.3694  2.13103204 99959
COSMOS 2475 (743)       
1 37869U 11064C   24249.12579812  .00000027  00000+0  00000+0 0  9998
2 37869  64.9345  94.9674 0023166 249.4240 307.5848  2.13102008 99918
COSMOS 2485 (747)       
1 39155U 13019A   24249.92749305  .00000024  00000+0  00000+0 0  9991
2 39155  65.0778  95.4526 0022003 227.8013 132.0945  2.13101950 88449
COSMOS 2492 (754)       
1 39620U 14012A   24251.75974815 -.00000067  00000+0  00000+0 0  9990
2 39620  65.6379 335.8535 0011699 312.1283  47.8301  2.13103265 81449
COSMOS 2500 (755)       
1 40001U 14032A   24250.99951794 -.00000068  00000+0  00000+0 0  9994
2 40001  65.5752 335.6777 0008580 202.5243 157.4954  2.13105996 79641
COSMOS 2501 (702K)      
1 40315U 14075A   24251.72275658  .00000055  00000+0  00000+0 0  9994
2 40315  63.6220 212.8069 0020651 210.6761 149.1877  2.13101484 76058
COSMOS 2514 (751)       
1 41330U 16008A   24251.23631788 -.00000067  00000+0  00000+0 0  9990
2 41330  65.3693 335.1583 0012481 209.4120 150.5758  2.13102684 66816
COSMOS 2522 (752)       
1 42939U 17055A   24251.54549172  .00000055  00000+0  00000+0 0  9994
2 42939  64.0832 213.9509 0009655 241.2963 118.5902  2.13102035 54173
COSMOS 2527 (756)       
1 43508U 18053A   24251.50496743  .00000023  00000+0  00000+0 0  9992
2 43508  65.2383  95.5685 0007194 216.8017 143.2269  2.13102399 48473
COSMOS 2529 (757)       
1 43687U 18086A   24251.60356033  .00000056  00000+0  00000+0 0  9990
2 43687  64.2988 214.4837 0011084 260.1888  99.6699  2.13102071 45489
COSMOS 2534 (758)       
1 44299U 19030A   24251.58944812  .00000056  00000+0  00000+0 0  9995
2 44299  64.3717 214.4455 0012983 280.0548 203.2223  2.13102172 41124
COSMOS 2544 (759)       
1 44850U 19088A   24250.04129917  .00000024  00000+0  00000+0 0  9997
2 44850  65.2245  95.4529 0011437 250.0238 109.9356  2.13102180 36883
COSMOS 2545 (760)       
1 45358U 20018A   24251.64589023 -.00000068  00000+0  00000+0 0  9990
2 45358  64.7087 335.0880 0010849 237.7618 122.1911  2.13102627 34864
COSMOS 2547 (705K)      
1 46805U 20075A   24251.36332060  .00000054  00000+0  00000+0 0  9991
2 46805  64.6011 214.1189 0008500 241.5460 118.3514  2.13102914 30104
COSMOS 2557 (706K)      
1 52984U 22075A   24251.52898963 -.00000070  00000+0  00000+0 0  9994
2 52984  64.6375 337.2145 0012378 273.3782  86.5358  2.13102392 16903
COSMOS 2559 (707K)      
1 54031U 22130A   24251.00288546 -.00000071  00000+0  00000+0 0  9995
2 54031  64.6095 337.3476 0007757 219.7610 140.2370  2.13101642 14877
COSMOS 2564 (761)       
1 54377U 22161A   24251.66261798  .00000057  00000+0  00000+0 0  9997
2 54377  64.7425 214.2284 0010919 224.1437 135.7536  2.13102183 13838
COSMOS 2569 (703K)      
1 57517U 23114A   24250.27172788  .00000023  00000+0  00000+0 0  9994
2 57517  64.9525  94.5652 0008872 295.9028  64.0866  2.13103957  8435
